OBJECT_NAME,OBJECT_ID,EPOCH,MEAN_MOTION,ECCENTRICITY,INCLINATION,RA_OF_ASC_NODE,ARG_OF_PERICENTER,MEAN_ANOMALY,EPHEMERIS_TYPE,CLASSIFICATION_TYPE,NORAD_CAT_ID,ELEMENT_SET_NO,REV_AT_EPOCH,BSTAR,MEAN_MOTION_DOT,MEAN_MOTION_DDOT
SL-6 R/B(2),1990-055D,2026-06-19T15:24:55.903680,15.04009533,.00410577,62.7822,267.0219,5.4999,354.6542,0,U,20666,999,95352,.91728981E-4,.1088E-4,0
SL-8 R/B,1990-078B,2026-06-19T11:23:30.808896,14.92414285,.03503498,82.9018,159.5784,30.7761,331.3492,0,U,20775,999,82446,.62227166E-3,.22061E-3,0
SL-8 R/B,1991-006B,2026-06-19T18:03:55.033920,13.77506058,.0023768,82.9425,94.1253,107.7634,322.6955,0,U,21088,999,77812,.453218E-4,.61E-6,0
OKEAN-3,1991-039A,2026-06-19T17:32:42.315648,15.05335385,.00138228,82.5163,237.9148,348.6162,11.4750,0,U,21397,999,88038,.15863033E-3,.2302E-4,0
COSMOS 2151,1991-042A,2026-06-19T22:15:22.478400,15.00444467,.0013761,82.4961,345.0361,75.8234,284.4518,0,U,21422,999,87852,.7876745E-4,.102E-4,0
SL-14 R/B,1991-042B,2026-06-19T14:00:34.788672,14.81903690,.00154208,82.4928,124.6481,266.1929,93.7522,0,U,21423,999,86816,.32662914E-4,.282E-5,0
ERS-1,1991-050A,2026-06-19T16:00:36.023904,14.39518241,.00307284,98.7796,191.4258,259.3155,100.4571,0,U,21574,999,83040,.54396629E-4,.124E-5,0
ARIANE 40 R/B,1991-050F,2026-06-19T18:04:52.624704,14.42958307,.00043243,98.1874,219.0704,115.8683,244.2954,0,U,21610,999,83371,.70091317E-4,.193E-5,0
INTERCOSMOS 25,1991-086A,2026-06-19T16:05:25.126080,12.12199037,.14839594,82.6052,248.3071,257.0320,86.1468,0,U,21819,999,50904,.15814993E-3,.793E-5,0
SL-8 R/B,1992-008B,2026-06-19T14:38:25.975968,13.75977575,.00339883,82.9260,191.9861,207.7795,271.8371,0,U,21876,999,72343,.11335304E-3,.125E-5,0
SL-8 R/B,1992-020B,2026-06-19T17:44:05.173728,13.75549124,.00295625,82.9306,77.9622,15.5822,13.5367,0,U,21938,999,71516,.6197849E-4,.75E-6,0
USA 81,1992-023A,2026-06-19T18:57:07.881120,14.32398807,.00027583,85.0074,72.5055,82.5083,277.6423,0,U,21949,999,10940,.42080039E-4,.134E-5,0
COSMOS 2219,1992-076A,2026-06-19T22:47:06.955584,14.14100950,.00167357,71.0581,164.2971,39.6784,320.5560,0,U,22219,999,73283,.19614985E-3,.327E-5,0
SL-16 R/B,1992-076B,2026-06-19T18:58:30.534816,14.16873583,.00147429,71.0007,333.2965,295.2209,163.4766,0,U,22220,999,73629,.14866688E-3,.25E-5,0
COSMOS 2221,1992-080A,2026-06-19T13:06:20.960352,14.96537995,.0013475,82.5028,181.5045,203.9046,156.1553,0,U,22236,999,79602,.88106609E-4,.1029E-4,0
SL-16 R/B,1992-093B,2026-06-19T22:16:09.221664,14.15460120,.00038153,71.0196,149.6376,183.1692,176.9408,0,U,22285,999,72762,-.78408427E-4,-.201E-5,0
COSMOS 2228,1992-094A,2026-06-19T21:27:16.335648,14.97594791,.00166564,82.5175,139.4501,322.7001,37.3064,0,U,22286,999,79135,.12617127E-3,.1504E-4,0
SL-16 R/B,1993-016B,2026-06-19T18:24:19.791072,14.15315370,.00100609,71.0085,0.7884,179.8805,180.2322,0,U,22566,999,71661,.93573142E-4,.135E-5,0
COSMOS 2242,1993-024A,2026-06-19T09:16:50.639808,14.96909187,.00151618,82.5179,169.4385,328.4519,31.5792,0,U,22626,999,79560,.10993261E-3,.129E-4,0
SL-16 R/B,1993-059B,2026-06-19T23:02:43.236096,14.17247943,.00153141,70.9886,155.4558,49.2847,310.9604,0,U,22803,999,69402,-.67506327E-4,-.184E-5,0
ARIANE 40 R/B,1993-061H,2026-06-19T18:56:12.864192,14.32908832,.00102916,98.4818,237.5921,348.5331,11.5617,0,U,22830,999,70872,.6159081E-4,.125E-5,0
COSMOS 2278,1994-023A,2026-06-19T19:01:49.149408,14.14398712,.00105962,71.0551,321.4726,240.3885,119.6183,0,U,23087,999,65924,.30939065E-4,.12E-6,0
SL-16 R/B,1994-023B,2026-06-19T13:57:18.559584,14.15026564,.00025928,70.9992,216.9032,185.0456,175.0641,0,U,23088,999,66050,.990562E-4,.144E-5,0
SL-16 R/B,1994-074B,2026-06-19T15:49:49.097856,14.79504069,.00052192,97.6989,197.2777,243.1472,230.7330,0,U,23343,999,70232,.44453546E-4,.283E-5,0
SL-16 R/B,1994-077B,2026-06-19T07:28:17.419008,14.15572971,.00030066,70.9812,138.6935,326.4595,33.6337,0,U,23405,999,63061,.13069582E-3,.208E-5,0
ARIANE 40+ R/B,1995-021B,2026-06-19T18:34:36.579936,14.39834611,.00066105,98.4411,240.8116,185.5756,284.6362,0,U,23561,999,63393,.74675353E-4,.191E-5,0
SL-16 R/B,1995-058B,2026-06-19T17:55:58.124928,14.15510012,.00139266,71.0224,325.9831,316.9641,43.0392,0,U,23705,999,58229,.14880395E-3,.244E-5,0
SL-16 R/B,1996-051B,2026-06-19T20:44:22.040736,14.12446718,.00157062,70.7644,318.9830,332.9211,27.1087,0,U,24298,999,53607,.90399134E-4,.118E-5,0
ORBVIEW 2 (SEASTAR),1997-037A,2026-06-19T21:03:48.265344,14.35554402,.00032479,98.8691,337.9712,110.8263,249.3269,0,U,24883,999,52313,.72443313E-4,.162E-5,0
SL-16 R/B,1998-043G,2026-06-19T14:35:42.076896,14.26068951,.00109458,98.8364,124.7882,80.0986,280.1429,0,U,25400,999,45351,.33270993E-4,.34E-6,0
SL-16 R/B,1998-045B,2026-06-19T20:23:00.162816,14.16202419,.00092598,71.0116,326.7305,238.3201,121.7020,0,U,25407,999,44156,-.5138972E-4,-.15E-5,0
ISS (ZARYA),1998-067A,2026-06-19T20:01:06.425760,15.49322400,.0004571,51.6328,286.9925,206.3215,153.7542,0,U,25544,999,57216,.16558772E-3,.8787E-4,0
CZ-4B R/B,1999-025C,2026-06-19T18:12:15.784992,14.18283838,.0037988,98.6482,212.5323,52.4474,60.6695,0,U,25732,999,40263,.32025989E-4,.24E-6,0
OKEAN-O,1999-039A,2026-06-19T17:06:52.171776,14.80469987,.00015487,97.9314,229.4820,71.6153,288.5227,0,U,25860,999,44948,.65543516E-4,.449E-5,0
SL-16 R/B,1999-039B,2026-06-19T17:34:50.458080,14.81847236,.00134168,97.9836,229.5883,287.8504,72.1245,0,U,25861,999,45197,.50515066E-4,.346E-5,0
DELTA 2 R/B,1999-041E,2026-06-19T12:16:07.527936,14.12018937,.05008478,51.7651,254.5131,288.8870,65.8407,0,U,25876,999,37741,.88505457E-4,.313E-5,0
HELIOS 1B,1999-064A,2026-06-19T17:36:52.223328,14.88012222,.0002545,98.1613,75.9474,87.7385,272.4121,0,U,25977,999,70043,.11592068E-3,.1006E-4,0
TERRA,1999-068A,2026-06-19T23:21:49.079808,14.61104930,.00018022,97.9455,220.4093,180.1913,299.9222,0,U,25994,999,41001,.64310431E-4,.272E-5,0
SL-16 R/B,2000-006B,2026-06-19T14:36:24.856128,14.15834426,.00156784,71.0018,243.5338,19.3264,340.8450,0,U,26070,999,36298,.78553751E-4,.107E-5,0
TITAN 4B R/B,2000-047B,2026-06-19T21:47:44.193696,15.10210420,.00458501,67.9884,112.9144,284.2070,75.3988,0,U,26474,999,40834,.15377781E-3,.244E-4,0
ENVISAT,2002-009A,2026-06-19T21:11:15.836352,14.39065299,.00013891,98.3834,122.1412,89.3478,287.9562,0,U,27386,999,27387,.32811348E-4,.58E-6,0
IDEFIX & ARIANE 42P R/B,2002-021B,2026-06-19T18:52:26.786496,14.31083104,.00106263,98.5942,108.2415,245.3958,114.6118,0,U,27422,999,25862,.7679955E-4,.159E-5,0
AQUA,2002-022A,2026-06-19T22:05:44.303424,14.62161553,.00009978,98.4277,140.2580,55.0047,325.7778,0,U,27424,999,28367,.12395559E-3,.574E-5,0
CZ-4B R/B,2002-024C,2026-06-19T19:07:52.502016,14.14564686,.00512185,98.8698,223.6004,92.9823,21.2164,0,U,27432,999,24367,.32897257E-4,.2E-6,0
MIDORI II (ADEOS-II),2002-056A,2026-06-19T17:28:29.814240,14.29350769,.00021743,98.7878,130.0096,73.3709,286.7711,0,U,27597,999,22487,.92940627E-4,.191E-5,0
H-2A R/B,2002-056E,2026-06-19T17:37:27.907392,14.33822992,.00692973,98.3312,127.3160,216.8811,209.1775,0,U,27601,999,22873,.67201971E-4,.15E-5,0
CZ-4B R/B,2003-049C,2026-06-19T13:39:39.013056,14.55101454,.00469122,98.6896,169.5106,281.1238,78.4685,0,U,28059,999,20141,.58954489E-4,.206E-5,0
CZ-2C R/B,2004-012C,2026-06-19T19:42:57.451392,15.79438376,.00097017,97.7076,246.7920,272.9938,87.0218,0,U,28222,999,22031,.495889E-3,.90295E-3,0
SL-16 R/B,2004-021B,2026-06-19T18:39:47.309760,14.14607452,.00071694,71.0006,18.2527,251.5319,108.5024,0,U,28353,999,13727,-.73021867E-4,-.188E-5,0
CZ-4B R/B,2004-035C,2026-06-19T16:22:22.550880,15.30655787,.00296305,97.3362,203.7276,328.7624,31.1855,0,U,28415,999,19550,.20606639E-3,.6109E-4,0
CZ-2C R/B,2004-046B,2026-06-19T17:10:38.409312,14.27026937,.01386133,98.1943,79.3386,212.7417,146.5118,0,U,28480,999,12305,.32403276E-4,.46E-6,0
ARIANE 5 R/B,2004-049H,2026-06-19T11:42:29.250720,14.85451455,.00843341,98.2722,342.8294,22.0227,338.4576,0,U,28499,999,16090,.53703399E-4,.428E-5,0
CZ-2D R/B,2005-024B,2026-06-19T13:52:25.356000,15.69779759,.00029674,97.3481,190.1257,49.2579,310.8941,0,U,28738,999,15571,.40689034E-3,.48463E-3,0
ALOS (DAICHI),2006-002A,2026-06-19T19:30:55.723680,14.70054658,.0001351,98.1324,126.3723,56.4498,303.6837,0,U,28931,999,8848,.1344077E-3,.757E-5,0
H-2A R/B,2006-002B,2026-06-19T21:19:56.436096,15.18089562,.00496163,98.2570,326.9618,252.8276,106.7520,0,U,28932,999,10993,.26863093E-3,.5569E-4,0
RESURS-DK 1,2006-021A,2026-06-19T17:53:38.630400,15.13226219,.00068886,69.9331,332.9307,290.5294,69.5133,0,U,29228,999,10296,.90574279E-4,.1505E-4,0
CZ-4B R/B,2006-046C,2026-06-19T16:36:42.331968,15.17798466,.00309461,97.5448,215.2916,273.5810,86.1885,0,U,29507,999,7551,.14839609E-3,.2965E-4,0
CZ-2C R/B,2007-010B,2026-06-19T17:41:13.835616,14.20276608,.00588592,98.4102,278.9631,358.7076,1.3940,0,U,31114,999,99420,.43156282E-4,.53E-6,0
COSMO-SKYMED 1,2007-023A,2026-06-19T22:36:42.903936,14.97111570,.00015081,97.8851,2.8208,97.9802,262.1590,0,U,31598,999,3020,.20574452E-3,.2314E-4,0
COSMOS 2428,2007-029A,2026-06-19T21:42:48.741120,14.12927887,.00071255,70.9350,348.7715,129.7553,230.4196,0,U,31792,999,97853,-.23180398E-4,-.91E-6,0
SL-16 R/B,2007-029B,2026-06-19T19:18:23.323968,14.14855665,.00023776,70.9771,317.7261,262.8504,201.0125,0,U,31793,999,97981,.2834237E-4,.7E-7,0
KORONAS-FOTON,2009-003A,2026-06-19T11:22:10.322112,15.45761286,.0011897,82.4289,169.8742,140.0965,220.1160,0,U,33504,999,96145,.20420337E-3,.9943E-4,0
CZ-2C R/B,2011-030B,2026-06-19T15:04:57.351648,14.81476436,.00528621,97.8654,125.9704,20.1528,152.3809,0,U,37731,999,80518,.12806606E-3,.972E-5,0
H-2A R/B,2012-025E,2026-06-19T11:57:36.124128,14.95730025,.00434963,98.4833,145.8345,341.6252,18.3393,0,U,38341,999,76343,.15714702E-3,.1712E-4,0
SHIJIAN-16 (SJ-16),2013-057A,2026-06-19T22:05:30.166656,14.92607195,.0016742,74.9728,351.5057,224.3237,135.6612,0,U,39358,999,68675,.36108075E-4,.343E-5,0
